[Satellite]
VERSION=1.1
NAME=STARLINK-4777
NICKNAME=STARLINK-4777
TLE1=1 53847U 22114AF  22290.91667824 -.00038679  00000+0 -27209-3 0  9992
TLE2=2 53847  53.2141 115.8877 0001075  63.5301  85.6859 15.73230600  1305
STATUS=0
